NORAD_CAT_ID,OBJECT_NAME,OBJECT_TYPE,EPOCH,MEAN_MOTION,ECCENTRICITY,INCLINATION,RA_OF_ASC_NODE,ARG_OF_PERICENTER,MEAN_ANOMALY,BSTAR,MEAN_MOTION_DOT,MEAN_MOTION_DDOT,TLE_LINE0,TLE_LINE1,TLE_LINE2,SEMIMAJOR_AXIS,PERIOD,APOGEE,PERIGEE,DECAYED
55405.0,STARLINK-5623,PAYLOAD,2023-10-16 17:28:19,14.98329431,0.0003139,69.9991,110.5892,269.9178,90.1621,4.6437e-05,4.61e-06,0.0,0 STARLINK-5623,1 55405U 23014Q   23289.72800424  .00000461  00000-0  46437-4 0  9999,2 55405  69.9991 110.5892 0003139 269.9178  90.1621 14.98329431 40993,6950.195,96.107,574.241,569.878,0.0
55405.0,STARLINK-5623,PAYLOAD,2023-10-17 12:41:56,14.98333458,0.0003108,69.9993,108.5693,270.2687,89.8116,2.9625e-05,2.61e-06,0.0,0 STARLINK-5623,1 55405U 23014Q   23290.52912125  .00000261  00000-0  29625-4 0  9999,2 55405  69.9993 108.5693 0003108 270.2687  89.8116 14.98333458 41110,6950.182,96.107,574.207,569.887,0.0
55405.0,STARLINK-5623,PAYLOAD,2023-10-17 19:06:27,14.98352843,0.0002674,69.9994,107.8959,264.1993,95.8861,-0.00027004,-3.315e-05,0.0,0 STARLINK-5623,1 55405U 23014Q   23290.79615627 -.00003315  00000-0 -27004-3 0  9998,2 55405  69.9994 107.8959 0002674 264.1993  95.8861 14.98352843 40210,6950.122,96.106,573.846,570.129,0.0
55405.0,STARLINK-5623,PAYLOAD,2023-10-18 12:44:00,14.9826279,0.0002291,70.0005,106.0466,259.38,100.7101,1.9994e-05,1.45e-06,0.0,0 STARLINK-5623,1 55405U 23014Q   23291.53056135  .00000145  00000-0  19994-4 0  9990,2 55405  70.0005 106.0466 0002291 259.3800 100.7101 14.98262790 40324,6950.401,96.111,573.858,570.673,0.0
55405.0,STARLINK-5623,PAYLOAD,2023-10-18 22:20:45,14.98318023,0.000271,70.0008,105.0379,248.9996,111.0873,0.00026422,3.06e-05,0.0,0 STARLINK-5623,1 55405U 23014Q   23291.93108209  .00003060  00000-0  26422-3 0  9996,2 55405  70.0008 105.0379 0002710 248.9996 111.0873 14.98318023 41328,6950.23,96.108,573.978,570.211,0.0
55405.0,STARLINK-5623,PAYLOAD,2023-10-19 11:09:51,14.98320365,0.0002802,70.0012,103.6895,269.6097,90.4741,-0.00012664,-1.603e-05,0.0,0 STARLINK-5623,1 55405U 23014Q   23292.46517417 -.00001603  00000-0 -12664-3 0  9996,2 55405  70.0012 103.6895 0002802 269.6097  90.4741 14.98320365 40464,6950.223,96.108,574.035,570.14,0.0
55405.0,STARLINK-5623,PAYLOAD,2023-10-19 22:22:48,14.98310725,0.0002974,70.0003,102.5104,270.4686,89.6133,-0.00021969,-2.712e-05,0.0,0 STARLINK-5623,1 55405U 23014Q   23292.93250691 -.00002712  00000-0 -21969-3 0  9996,2 55405  70.0003 102.5104 0002974 270.4686  89.6133 14.98310725 41475,6950.252,96.108,574.185,570.05,0.0
55405.0,STARLINK-5623,PAYLOAD,2023-10-20 11:11:52,14.9832069,0.000303,70.0013,101.1644,271.7128,88.3684,-4.2401e-05,-5.99e-06,0.0,0 STARLINK-5623,1 55405U 23014Q   23293.46658036 -.00000599  00000-0 -42401-4 0  9996,2 55405  70.0013 101.1644 0003030 271.7128  88.3684 14.98320690 40613,6950.222,96.108,574.193,569.981,0.0
55405.0,STARLINK-5623,PAYLOAD,2023-10-20 20:48:40,14.98324874,0.0003195,70.005,100.1554,269.9639,90.1154,-7.3569e-05,-9.71e-06,0.0,0 STARLINK-5623,1 55405U 23014Q   23293.86714095 -.00000971  00000-0 -73569-4 0  9991,2 55405  70.0050 100.1554 0003195 269.9639  90.1154 14.98324874 41613,6950.209,96.107,574.294,569.853,0.0
55405.0,STARLINK-5623,PAYLOAD,2023-10-21 11:13:53,14.98320225,0.0003281,70.0015,98.6388,271.5438,88.5346,0.0002258,2.602e-05,0.0,0 STARLINK-5623,1 55405U 23014Q   23294.46797904  .00002602  00000-0  22580-3 0  9995,2 55405  70.0015  98.6388 0003281 271.5438  88.5346 14.98320225 40767,6950.223,96.108,574.368,569.808,0.0
55405.0,STARLINK-5623,PAYLOAD,2023-10-21 20:50:41,14.9832608,0.0003357,69.9988,97.6278,272.8334,87.2441,0.00023264,2.684e-05,0.0,0 STARLINK-5623,1 55405U 23014Q   23294.86853682  .00002684  00000-0  23264-3 0  9995,2 55405  69.9988  97.6278 0003357 272.8334  87.2441 14.98326080 41761,6950.205,96.107,574.403,569.737,0.0
55405.0,STARLINK-5623,PAYLOAD,2023-10-22 11:15:53,14.98338021,0.0003381,69.9988,96.1125,273.0169,87.0603,0.00015235,1.726e-05,0.0,0 STARLINK-5623,1 55405U 23014Q   23295.46937116  .00001726  00000-0  15235-3 0  9992,2 55405  69.9988  96.1125 0003381 273.0169  87.0603 14.98338021 40914,6950.168,96.106,574.383,569.683,0.0
55405.0,STARLINK-5623,PAYLOAD,2023-10-22 14:28:09,14.98338651,0.0003377,69.9988,95.7758,272.9372,87.14,0.00015373,1.742e-05,0.0,0 STARLINK-5623,1 55405U 23014Q   23295.60288992  .00001742  00000-0  15373-3 0  9990,2 55405  69.9988  95.7758 0003377 272.9372  87.1400 14.98338651 41871,6950.166,96.106,574.378,569.684,0.0
55405.0,STARLINK-5623,PAYLOAD,2023-10-22 20:52:41,14.98342697,0.0003355,69.9988,95.1025,272.8985,87.179,0.00018608,2.129e-05,0.0,0 STARLINK-5623,1 55405U 23014Q   23295.86992459  .00002129  00000-0  18608-3 0  9992,2 55405  69.9988  95.1025 0003355 272.8985  87.1790 14.98342697 41919,6950.154,96.106,574.35,569.687,0.0
55405.0,STARLINK-5623,PAYLOAD,2023-10-23 11:17:54,14.98338129,0.0003288,69.9991,93.5875,272.9122,87.166,4.4484e-07,-8.8e-07,0.0,0 STARLINK-5623,1 55405U 23014Q   23296.47076845 -.00000088  00000-0  44484-6 0  9999,2 55405  69.9991  93.5875 0003288 272.9122  87.1660 14.98338129 41064,6950.168,96.106,574.318,569.748,0.0
55405.0,STARLINK-5623,PAYLOAD,2023-10-23 20:54:42,14.98341801,0.0003278,69.9994,92.5776,273.0566,87.0218,6.8718e-06,-1.1e-07,0.0,0 STARLINK-5623,1 55405U 23014Q   23296.87132299 -.00000011  00000-0  68718-5 0  9990,2 55405  69.9994  92.5776 0003278 273.0566  87.0218 14.98341801 42069,6950.156,96.106,574.3,569.743,0.0
55405.0,STARLINK-5623,PAYLOAD,2023-10-24 11:19:54,14.98339846,0.0003138,69.9999,91.0628,274.161,85.9191,-0.0001129,-1.44e-05,0.0,0 STARLINK-5623,1 55405U 23014Q   23297.47216382 -.00001440  00000-0 -11290-3 0  9992,2 55405  69.9999  91.0628 0003138 274.1610  85.9191 14.98339846 41210,6950.162,96.106,574.208,569.846,0.0
55405.0,STARLINK-5623,PAYLOAD,2023-10-25 14:34:11,14.98333901,0.0003155,69.9998,88.2017,270.5262,89.5535,-4.0613e-05,-5.78e-06,0.0,0 STARLINK-5623,1 55405U 23014Q   23298.60707974 -.00000578  00000-0 -40613-4 0  9993,2 55405  69.9998  88.2017 0003155 270.5262  89.5535 14.98333901 41387,6950.181,96.107,574.239,569.853,0.0
55405.0,STARLINK-5623,PAYLOAD,2023-10-26 13:00:04,14.98327866,0.0003151,70.0,85.845,270.7108,89.369,-2.5935e-05,-4.02e-06,0.0,0 STARLINK-5623,1 55405U 23014Q   23299.54172173 -.00000402  00000-0 -25935-4 0  9990,2 55405  70.0000  85.8450 0003151 270.7108  89.3690 14.98327866 42468,6950.199,96.107,574.254,569.874,0.0
55405.0,STARLINK-5623,PAYLOAD,2023-10-26 19:24:36,14.98342557,0.0003004,69.9999,85.1717,269.1117,90.9698,-0.00017959,-2.236e-05,0.0,0 STARLINK-5623,1 55405U 23014Q   23299.80875573 -.00002236  00000-0 -17959-3 0  9996,2 55405  69.9999  85.1717 0003004 269.1117  90.9698 14.98342557 41560,6950.154,96.106,574.107,569.931,0.0
55405.0,STARLINK-5623,PAYLOAD,2023-10-27 03:25:17,14.98330904,0.0003063,69.9997,84.3303,274.5924,85.4886,4.0745e-06,-4.4e-07,0.0,0 STARLINK-5623,1 55405U 23014Q   23300.14255910 -.00000044  00000-0  40745-5 0  9998,2 55405  69.9997  84.3303 0003063 274.5924  85.4886 14.98330904 41618,6950.19,96.107,574.184,569.926,0.0
55405.0,STARLINK-5623,PAYLOAD,2023-10-27 11:25:57,14.98332827,0.0003197,69.9996,83.4883,270.1217,89.9576,4.2589e-05,4.15e-06,0.0,0 STARLINK-5623,1 55405U 23014Q   23300.47635532  .00000415  00000-0  42589-4 0  9994,2 55405  69.9996  83.4883 0003197 270.1217  89.9576 14.98332827 42606,6950.184,96.107,574.271,569.827,0.0
55405.0,STARLINK-5623,PAYLOAD,2023-10-27 19:26:37,14.98336387,0.0003015,69.9997,82.6462,264.6096,95.4719,5.2251e-05,5.31e-06,0.0,0 STARLINK-5623,1 55405U 23014Q   23300.81015155  .00000531  00000-0  52251-4 0  9991,2 55405  69.9997  82.6462 0003015 264.6096  95.4719 14.98336387 41710,6950.173,96.107,574.134,569.943,0.0
55405.0,STARLINK-5623,PAYLOAD,2023-10-28 11:27:58,14.98324887,0.0003082,69.9995,80.9625,269.222,90.8586,-1.6238e-05,-2.87e-06,0.0,0 STARLINK-5623,1 55405U 23014Q   23301.47776059 -.00000287  00000-0 -16238-4 0  9996,2 55405  69.9995  80.9625 0003082 269.2220  90.8586 14.98324887 41818,6950.209,96.107,574.216,569.932,0.0
55405.0,STARLINK-5623,PAYLOAD,2023-10-28 13:04:06,14.9832487,0.0003072,69.9998,80.7942,269.301,90.7797,-2.151e-05,-3.5e-06,0.0,0 STARLINK-5623,1 55405U 23014Q   23301.54452092 -.00000350  00000-0 -21510-4 0  9992,2 55405  69.9998  80.7942 0003072 269.3010  90.7797 14.98324870 42768,6950.209,96.107,574.209,569.939,0.0
55405.0,STARLINK-5623,PAYLOAD,2023-10-28 19:28:38,14.98324689,0.0002933,70.0002,80.122,267.6991,92.3832,-2.0645e-05,-3.39e-06,0.0,0 STARLINK-5623,1 55405U 23014Q   23301.81156202 -.00000339  00000-0 -20645-4 0  9991,2 55405  70.0002  80.1220 0002933 267.6991  92.3832 14.98324689 42805,6950.209,96.107,574.113,570.036,0.0
55405.0,STARLINK-5623,PAYLOAD,2023-10-29 13:06:06,14.98336815,0.0003152,70.0001,78.2705,271.5043,88.5754,2.5793e-05,2.15e-06,0.0,0 STARLINK-5623,1 55405U 23014Q   23302.54591179  .00000215  00000-0  25793-4 0  9998,2 55405  70.0001  78.2705 0003152 271.5043  88.5754 14.98336815 41977,6950.172,96.107,574.228,569.846,0.0
55405.0,STARLINK-5623,PAYLOAD,2023-10-29 14:42:15,14.98315028,0.0002724,69.9996,78.1006,275.1049,84.98,0.00037391,4.369e-05,0.0,0 STARLINK-5623,1 55405U 23014Q   23302.61267997  .00004369  00000-0  37391-3 0  9994,2 55405  69.9996  78.1006 0002724 275.1049  84.9800 14.98315028 42921,6950.239,96.108,573.997,570.211,0.0
55405.0,STARLINK-5623,PAYLOAD,2023-10-29 17:54:30,14.98364605,0.0002585,70.0008,77.767,258.7972,101.2896,-0.00034621,-4.225e-05,0.0,0 STARLINK-5623,1 55405U 23014Q   23302.74618228 -.00004225  00000-0 -34621-3 0  9991,2 55405  70.0008  77.7670 0002585 258.7972 101.2896 14.98364605 42009,6950.086,96.105,573.747,570.154,0.0
55405.0,STARLINK-5623,PAYLOAD,2023-10-29 19:30:38,14.98343649,0.0002965,70.0002,77.5975,266.223,93.859,8.582e-05,9.31e-06,0.0,0 STARLINK-5623,1 55405U 23014Q   23302.81294409  .00000931  00000-0  85820-4 0  9996,2 55405  70.0002  77.5975 0002965 266.2230  93.8590 14.98343649 42958,6950.151,96.106,574.076,569.955,0.0
